*******************************************************************************
Ephemeris / WWW_USER Mon Mar 24 11:45:09 2025 Pasadena, USA      / Horizons    
*******************************************************************************
Target body name: (2017 SN16)                     {source: JPL#20}
Center body name: Earth (399)                     {source: DE441}
Center-site name: Gemini South Obs., Cerro Pachon
*******************************************************************************
Start time      : A.D. 2018-Aug-07 22:22:00.0000 UT      
Stop  time      : A.D. 2018-Aug-08 11:14:00.0000 UT      
Step-size       : 1 minutes
*******************************************************************************
Target pole/equ : undefined
Target radii    : undefined                                                    
Center geodetic : 289.2634, -30.2406227, 2.71233  {E-lon(deg),Lat(deg),Alt(km)}
Center cylindric: 289.2634,5517.21435,-3194.81213 {E-lon(deg),Dxy(km),Dz(km)}
Center pole/equ : ITRF93                          {East-longitude positive}
Center radii    : 6378.137, 6378.137, 6356.752 km {Equator_a, b, pole_c}       
Target primary  : Sun
Vis. interferer : MOON (R_eq= 1737.400) km        {source: DE441}
Rel. light bend : Sun                             {source: DE441}
Rel. lght bnd GM: 1.3271E+11 km^3/s^2                                          
Small-body perts: Yes                             {source: SB441-N16}
Atmos refraction: NO (AIRLESS)
RA format       : HMS
Time format     : CAL 
Calendar mode   : Mixed Julian/Gregorian
RTS-only print  : NO       
EOP file        : eop.250321.p250617                                           
EOP coverage    : DATA-BASED 1962-JAN-20 TO 2025-MAR-21. PREDICTS-> 2025-JUN-16
Units conversion: 1 au= 149597870.700 km, c= 299792.458 km/s, 1 day= 86400.0 s 
Table cut-offs 1: Elevation (-90.0deg=NO ),Airmass (>38.000=NO), Daylight (YES)
Table cut-offs 2: Solar elongation (  0.0,180.0=NO ),Local Hour Angle( 0.0=NO )
Table cut-offs 3: RA/DEC angular rate (     0.0=NO )                           
*******************************************************************************
Initial IAU76/J2000 heliocentric ecliptic osculating elements (au, days, deg.):
  EPOCH=  2458305.5 ! 2018-Jul-06.00 (TDB)         Residual RMS= .23751        
   EC= .1454884975659386   QR= .8682464985612274   TP= 2458145.5722438502      
   OM= 2.759719470837934   W=  137.1017088998531   IN= 13.38264682844635       
  Equivalent ICRF heliocentric cartesian coordinates (au, au/d):
   X= 5.756755401261899E-01  Y=-7.953424559592890E-01  Z=-6.031561894536019E-01
  VX= 1.332076113263395E-02 VY= 5.454663564585547E-03 VZ= 3.896229736425836E-03
Asteroid physical parameters (km, seconds, rotational period in hours):        
   GM= n.a.                RAD= n.a.               ROTPER= n.a.                
   H= 23.34                G= .150                 B-V= n.a.                   
                           ALBEDO= n.a.            STYP= n.a.                  
*******************************************************************************
 Date__(UT)__HR:MN     R.A._________(ICRF)_________DEC
******************************************************
$$SOE
 2018-Aug-08 06:34     01 49 45.446161 -27 57 30.46684
 2018-Aug-08 06:35     01 49 45.449185 -27 57 30.33287
 2018-Aug-08 06:36     01 49 45.452181 -27 57 30.19873
 2018-Aug-08 06:37     01 49 45.455148 -27 57 30.06441
 2018-Aug-08 06:38     01 49 45.458086 -27 57 29.92991
 2018-Aug-08 06:39     01 49 45.460996 -27 57 29.79524
 2018-Aug-08 06:40     01 49 45.463878 -27 57 29.66039
 2018-Aug-08 06:41     01 49 45.466731 -27 57 29.52536
 2018-Aug-08 06:42     01 49 45.469556 -27 57 29.39015
 2018-Aug-08 06:43     01 49 45.472354 -27 57 29.25476
 2018-Aug-08 06:44     01 49 45.475124 -27 57 29.11918
 2018-Aug-08 06:45     01 49 45.477866 -27 57 28.98343
 2018-Aug-08 06:46     01 49 45.480580 -27 57 28.84749
 2018-Aug-08 06:47     01 49 45.483268 -27 57 28.71137
 2018-Aug-08 06:48     01 49 45.485927 -27 57 28.57507
 2018-Aug-08 06:49     01 49 45.488560 -27 57 28.43858
 2018-Aug-08 06:50     01 49 45.491166 -27 57 28.30190
 2018-Aug-08 06:51     01 49 45.493745 -27 57 28.16504
 2018-Aug-08 06:52     01 49 45.496297 -27 57 28.02799
 2018-Aug-08 06:53     01 49 45.498823 -27 57 27.89076
 2018-Aug-08 06:54     01 49 45.501322 -27 57 27.75334
 2018-Aug-08 06:55     01 49 45.503794 -27 57 27.61572
 2018-Aug-08 06:56     01 49 45.506241 -27 57 27.47792
 2018-Aug-08 06:57     01 49 45.508661 -27 57 27.33993
 2018-Aug-08 06:58     01 49 45.511056 -27 57 27.20175
 2018-Aug-08 06:59     01 49 45.513424 -27 57 27.06338
 2018-Aug-08 07:00     01 49 45.515767 -27 57 26.92481
 2018-Aug-08 07:01     01 49 45.518085 -27 57 26.78606
 2018-Aug-08 07:02     01 49 45.520377 -27 57 26.64711
 2018-Aug-08 07:03     01 49 45.522644 -27 57 26.50796
 2018-Aug-08 07:04     01 49 45.524885 -27 57 26.36862
 2018-Aug-08 07:05     01 49 45.527102 -27 57 26.22909
 2018-Aug-08 07:06     01 49 45.529294 -27 57 26.08936
 2018-Aug-08 07:07     01 49 45.531461 -27 57 25.94944
 2018-Aug-08 07:08     01 49 45.533604 -27 57 25.80931
 2018-Aug-08 07:09     01 49 45.535722 -27 57 25.66899
 2018-Aug-08 07:10     01 49 45.537815 -27 57 25.52847
 2018-Aug-08 07:11     01 49 45.539885 -27 57 25.38776
 2018-Aug-08 07:12     01 49 45.541931 -27 57 25.24684
 2018-Aug-08 07:13     01 49 45.543952 -27 57 25.10572
 2018-Aug-08 07:14     01 49 45.545950 -27 57 24.96441
 2018-Aug-08 07:15     01 49 45.547925 -27 57 24.82289
 2018-Aug-08 07:16     01 49 45.549876 -27 57 24.68117
 2018-Aug-08 07:17     01 49 45.551803 -27 57 24.53925
 2018-Aug-08 07:18     01 49 45.553708 -27 57 24.39712
 2018-Aug-08 07:19     01 49 45.555589 -27 57 24.25479
 2018-Aug-08 07:20     01 49 45.557448 -27 57 24.11226
 2018-Aug-08 07:21     01 49 45.559283 -27 57 23.96953
 2018-Aug-08 07:22     01 49 45.561096 -27 57 23.82658
 2018-Aug-08 07:23     01 49 45.562887 -27 57 23.68344
 2018-Aug-08 07:24     01 49 45.564656 -27 57 23.54008
 2018-Aug-08 07:25     01 49 45.566402 -27 57 23.39652
 2018-Aug-08 07:26     01 49 45.568126 -27 57 23.25275
 2018-Aug-08 07:27     01 49 45.569829 -27 57 23.10878
 2018-Aug-08 07:28     01 49 45.571509 -27 57 22.96460
 2018-Aug-08 07:29     01 49 45.573168 -27 57 22.82020
 2018-Aug-08 07:30     01 49 45.574806 -27 57 22.67560
 2018-Aug-08 07:31     01 49 45.576422 -27 57 22.53079
 2018-Aug-08 07:32     01 49 45.578018 -27 57 22.38577
 2018-Aug-08 07:33     01 49 45.579592 -27 57 22.24053
 2018-Aug-08 07:34     01 49 45.581145 -27 57 22.09509
 2018-Aug-08 07:35     01 49 45.582678 -27 57 21.94943
 2018-Aug-08 07:36     01 49 45.584190 -27 57 21.80356
 2018-Aug-08 07:37     01 49 45.585682 -27 57 21.65748
 2018-Aug-08 07:38     01 49 45.587154 -27 57 21.51118
 2018-Aug-08 07:39     01 49 45.588605 -27 57 21.36467
 2018-Aug-08 07:40     01 49 45.590037 -27 57 21.21795
 2018-Aug-08 07:41     01 49 45.591449 -27 57 21.07101
 2018-Aug-08 07:42     01 49 45.592841 -27 57 20.92385
 2018-Aug-08 07:43     01 49 45.594214 -27 57 20.77648
 2018-Aug-08 07:44     01 49 45.595567 -27 57 20.62889
 2018-Aug-08 07:45     01 49 45.596901 -27 57 20.48109
 2018-Aug-08 07:46     01 49 45.598216 -27 57 20.33307
 2018-Aug-08 07:47     01 49 45.599513 -27 57 20.18483
 2018-Aug-08 07:48     01 49 45.600790 -27 57 20.03637
 2018-Aug-08 07:49     01 49 45.602049 -27 57 19.88769
 2018-Aug-08 07:50     01 49 45.603290 -27 57 19.73880
 2018-Aug-08 07:51     01 49 45.604512 -27 57 19.58968
 2018-Aug-08 07:52     01 49 45.605717 -27 57 19.44035
 2018-Aug-08 07:53     01 49 45.606903 -27 57 19.29079
 2018-Aug-08 07:54     01 49 45.608071 -27 57 19.14102
 2018-Aug-08 07:55     01 49 45.609222 -27 57 18.99102
 2018-Aug-08 07:56     01 49 45.610356 -27 57 18.84080
 2018-Aug-08 07:57     01 49 45.611472 -27 57 18.69036
 2018-Aug-08 07:58     01 49 45.612571 -27 57 18.53970
 2018-Aug-08 07:59     01 49 45.613653 -27 57 18.38881
 2018-Aug-08 08:00     01 49 45.614718 -27 57 18.23770
 2018-Aug-08 08:01     01 49 45.615767 -27 57 18.08637
 2018-Aug-08 08:02     01 49 45.616799 -27 57 17.93481
 2018-Aug-08 08:03     01 49 45.617814 -27 57 17.78303
 2018-Aug-08 08:04     01 49 45.618813 -27 57 17.63102
 2018-Aug-08 08:05     01 49 45.619797 -27 57 17.47879
 2018-Aug-08 08:06     01 49 45.620764 -27 57 17.32633
 2018-Aug-08 08:07     01 49 45.621716 -27 57 17.17364
 2018-Aug-08 08:08     01 49 45.622652 -27 57 17.02073
 2018-Aug-08 08:09     01 49 45.623573 -27 57 16.86759
 2018-Aug-08 08:10     01 49 45.624478 -27 57 16.71423
 2018-Aug-08 08:11     01 49 45.625368 -27 57 16.56064
 2018-Aug-08 08:12     01 49 45.626244 -27 57 16.40682
 2018-Aug-08 08:13     01 49 45.627104 -27 57 16.25277
 2018-Aug-08 08:14     01 49 45.627950 -27 57 16.09849
 2018-Aug-08 08:15     01 49 45.628782 -27 57 15.94399
 2018-Aug-08 08:16     01 49 45.629599 -27 57 15.78925
 2018-Aug-08 08:17     01 49 45.630402 -27 57 15.63429
 2018-Aug-08 08:18     01 49 45.631191 -27 57 15.47909
 2018-Aug-08 08:19     01 49 45.631967 -27 57 15.32367
 2018-Aug-08 08:20     01 49 45.632728 -27 57 15.16801
 2018-Aug-08 08:21     01 49 45.633477 -27 57 15.01213
 2018-Aug-08 08:22     01 49 45.634211 -27 57 14.85601
 2018-Aug-08 08:23     01 49 45.634933 -27 57 14.69966
 2018-Aug-08 08:24     01 49 45.635642 -27 57 14.54308
 2018-Aug-08 08:25     01 49 45.636338 -27 57 14.38627
 2018-Aug-08 08:26     01 49 45.637021 -27 57 14.22923
 2018-Aug-08 08:27     01 49 45.637692 -27 57 14.07195
 2018-Aug-08 08:28     01 49 45.638350 -27 57 13.91444
 2018-Aug-08 08:29     01 49 45.638997 -27 57 13.75670
 2018-Aug-08 08:30     01 49 45.639631 -27 57 13.59872
 2018-Aug-08 08:31  m  01 49 45.640253 -27 57 13.44051
 2018-Aug-08 08:32  m  01 49 45.640864 -27 57 13.28207
 2018-Aug-08 08:33  m  01 49 45.641463 -27 57 13.12339
 2018-Aug-08 08:34  m  01 49 45.642051 -27 57 12.96448
 2018-Aug-08 08:35  m  01 49 45.642628 -27 57 12.80533
 2018-Aug-08 08:36  m  01 49 45.643193 -27 57 12.64595
